{"id":"499","name":"Mars ","epoch":"2000-Jan-01 12:00:00.0000","physicalData":{"meanRadius":3389920,"mass":6.417099999999999e+23,"siderealRotRate":0.004061250902602204,"gravParameter":42828375.214,"obliquity":25.19},"elementTable":{"eccentricity":0.093315101458261,"periapsis":206668969.6541986,"inclination":1.849876477108884,"longitudeOfAscendingNode":49.56200565861963,"argumentOfPeriapsis":286.5373830861993,"timeOfPeriapsis":2451508.062923341,"meanMotion":1.849876477108884,"meanAnomaly":19.35648274725794,"trueAnomaly":23.33319664407224,"semiMajorAxis":19.35648274725794,"apoapsis":249209296.2937473,"siderealOrbitPeriod":59354318.00266414},"vectorTable":{"position":[208048140641.842,-2007052628.025223,-5156288959.268025],"velocity":[1162.672403765521,26296.06454546454,522.297022994687],"range":208121705741.162,"rangeRate":895.7313284037053}}
